[{"OBJECT_NAME":"HAWK-7C","OBJECT_ID":"2023-054Y","EPOCH":"2026-03-09T16:32:02.440032","MEAN_MOTION":15.26207266,"ECCENTRICITY":0.00036507,"INCLINATION":97.2829,"RA_OF_ASC_NODE":317.5849,"ARG_OF_PERICENTER":52.209,"MEAN_ANOMALY":307.9479,"EPHEMERIS_TYPE":0,"CLASSIFICATION_TYPE":"U","NORAD_CAT_ID":56200,"ELEMENT_SET_NO":999,"REV_AT_EPOCH":16184,"BSTAR":0.0003098019,"MEAN_MOTION_DOT":7.947e-5,"MEAN_MOTION_DDOT":0},{"OBJECT_NAME":"STARLINK-30338","OBJECT_ID":"2023-129W","EPOCH":"2026-03-09T22:00:01.999584","MEAN_MOTION":15.26753613,"ECCENTRICITY":0.00012914,"INCLINATION":42.9999,"RA_OF_ASC_NODE":116.8583,"ARG_OF_PERICENTER":250.1763,"MEAN_ANOMALY":138.3958,"EPHEMERIS_TYPE":0,"CLASSIFICATION_TYPE":"U","NORAD_CAT_ID":57718,"ELEMENT_SET_NO":999,"REV_AT_EPOCH":577,"BSTAR":0.00014443015,"MEAN_MOTION_DOT":3.618e-5,"MEAN_MOTION_DDOT":0}]
